[{"OBJECT_NAME":"ONEWEB-0388","OBJECT_ID":"2021-090AM","EPOCH":"2026-05-08T05:23:55.187520","MEAN_MOTION":13.19725237,"ECCENTRICITY":0.0001901,"INCLINATION":87.9146,"RA_OF_ASC_NODE":312.9393,"ARG_OF_PERICENTER":91.89,"MEAN_ANOMALY":268.245,"EPHEMERIS_TYPE":0,"CLASSIFICATION_TYPE":"U","NORAD_CAT_ID":49314,"ELEMENT_SET_NO":999,"REV_AT_EPOCH":22114,"BSTAR":0.00026988,"MEAN_MOTION_DOT":1.21e-06,"MEAN_MOTION_DDOT":0.0},{"OBJECT_NAME":"ONEWEB-0389","OBJECT_ID":"2021-132A","EPOCH":"2026-05-08T04:19:43.339872","MEAN_MOTION":13.17649354,"ECCENTRICITY":0.0001946,"INCLINATION":87.9171,"RA_OF_ASC_NODE":13.8207,"ARG_OF_PERICENTER":92.6532,"MEAN_ANOMALY":267.4822,"EPHEMERIS_TYPE":0,"CLASSIFICATION_TYPE":"U","NORAD_CAT_ID":50469,"ELEMENT_SET_NO":999,"REV_AT_EPOCH":21281,"BSTAR":0.00017380000000000002,"MEAN_MOTION_DOT":8e-07,"MEAN_MOTION_DDOT":0.0},{"OBJECT_NAME":"ONEWEB-0390","OBJECT_ID":"2021-132B","EPOCH":"2026-05-08T04:22:08.606784","MEAN_MOTION":13.17649382,"ECCENTRICITY":0.0001598,"INCLINATION":87.917,"RA_OF_ASC_NODE":13.8211,"ARG_OF_PERICENTER":81.6475,"MEAN_ANOMALY":278.4837,"EPHEMERIS_TYPE":0,"CLASSIFICATION_TYPE":"U","NORAD_CAT_ID":50470,"ELEMENT_SET_NO":999,"REV_AT_EPOCH":21281,"BSTAR":2.4022e-05,"MEAN_MOTION_DOT":2.2e-07,"MEAN_MOTION_DDOT":0.0},{"OBJECT_NAME":"ONEWEB-0391","OBJECT_ID":"2021-132C","EPOCH":"2026-05-08T04:24:34.695360","MEAN_MOTION":13.17649455,"ECCENTRICITY":0.0001817,"INCLINATION":87.9172,"RA_OF_ASC_NODE":13.8301,"ARG_OF_PERICENTER":108.8065,"MEAN_ANOMALY":251.3264,"EPHEMERIS_TYPE":0,"CLASSIFICATION_TYPE":"U","NORAD_CAT_ID":50471,"ELEMENT_SET_NO":999,"REV_AT_EPOCH":21281,"BSTAR":0.00015219,"MEAN_MOTION_DOT":7.2e-07,"MEAN_MOTION_DDOT":0.0},{"OBJECT_NAME":"ONEWEB-0392","OBJECT_ID":"2021-132D","EPOCH":"2026-05-08T05:08:18.673728","MEAN_MOTION":13.17649502,"ECCENTRICITY":0.0001864,"INCLINATION":87.9179,"RA_OF_ASC_NODE":13.7895,"ARG_OF_PERICENTER":94.059,"MEAN_ANOMALY":266.0755,"EPHEMERIS_TYPE":0,"CLASSIFICATION_TYPE":"U","NORAD_CAT_ID":50472,"ELEMENT_SET_NO":999,"REV_AT_EPOCH":21285,"BSTAR":-0.00033865,"MEAN_MOTION_DOT":-1.19e-06,"MEAN_MOTION_DDOT":0.0},{"OBJECT_NAME":"ONEWEB-0393","OBJECT_ID":"2021-132E","EPOCH":"2026-05-08T04:33:03.431520","MEAN_MOTION":13.17647588,"ECCENTRICITY":0.0001852,"INCLINATION":87.9171,"RA_OF_ASC_NODE":13.8145,"ARG_OF_PERICENTER":86.997,"MEAN_ANOMALY":273.1373,"EPHEMERIS_TYPE":0,"CLASSIFICATION_TYPE":"U","NORAD_CAT_ID":50473,"ELEMENT_SET_NO":999,"REV_AT_EPOCH":21284,"BSTAR":4.5241e-05,"MEAN_MOTION_DOT":3e-07,"MEAN_MOTION_DDOT":0.0},{"OBJECT_NAME":"ONEWEB-0394","OBJECT_ID":"2021-132F","EPOCH":"2026-05-08T02:40:08.614848","MEAN_MOTION":13.18684811,"ECCENTRICITY":0.0001947,"INCLINATION":87.9194,"RA_OF_ASC_NODE":343.4151,"ARG_OF_PERICENTER":89.7486,"MEAN_ANOMALY":270.3869,"EPHEMERIS_TYPE":0,"CLASSIFICATION_TYPE":"U","NORAD_CAT_ID":50474,"ELEMENT_SET_NO":999,"REV_AT_EPOCH":21631,"BSTAR":0.00070849,"MEAN_MOTION_DOT":2.92e-06,"MEAN_MOTION_DDOT":0.0},{"OBJECT_NAME":"ONEWEB-0395","OBJECT_ID":"2021-132G","EPOCH":"2026-05-08T06:19:53.371488","MEAN_MOTION":13.1141281,"ECCENTRICITY":0.0001632,"INCLINATION":87.8914,"RA_OF_ASC_NODE":29.0088,"ARG_OF_PERICENTER":84.7035,"MEAN_ANOMALY":275.4279,"EPHEMERIS_TYPE":0,"CLASSIFICATION_TYPE":"U","NORAD_CAT_ID":50475,"ELEMENT_SET_NO":999,"REV_AT_EPOCH":21048,"BSTAR":0.00081006,"MEAN_MOTION_DOT":3e-06,"MEAN_MOTION_DDOT":0.0},{"OBJECT_NAME":"ONEWEB-0396","OBJECT_ID":"2021-132H","EPOCH":"2026-05-08T02:30:25.626528","MEAN_MOTION":13.18685942,"ECCENTRICITY":0.0001924,"INCLINATION":87.9192,"RA_OF_ASC_NODE":343.4292,"ARG_OF_PERICENTER":89.0241,"MEAN_ANOMALY":271.1111,"EPHEMERIS_TYPE":0,"CLASSIFICATION_TYPE":"U","NORAD_CAT_ID":50476,"ELEMENT_SET_NO":999,"REV_AT_EPOCH":21635,"BSTAR":8.523100000000001e-05,"MEAN_MOTION_DOT":4.7e-07,"MEAN_MOTION_DDOT":0.0},{"OBJECT_NAME":"ONEWEB-0397","OBJECT_ID":"2021-132J","EPOCH":"2026-05-08T02:52:17.006592","MEAN_MOTION":13.18686152,"ECCENTRICITY":0.0002029,"INCLINATION":87.9189,"RA_OF_ASC_NODE":343.4263,"ARG_OF_PERICENTER":87.3217,"MEAN_ANOMALY":272.8147,"EPHEMERIS_TYPE":0,"CLASSIFICATION_TYPE":"U","NORAD_CAT_ID":50477,"ELEMENT_SET_NO":999,"REV_AT_EPOCH":21633,"BSTAR":3.3063e-05,"MEAN_MOTION_DOT":2.6e-07,"MEAN_MOTION_DDOT":0.0},{"OBJECT_NAME":"ONEWEB-0398","OBJECT_ID":"2021-132K","EPOCH":"2026-05-08T05:33:31.299264","MEAN_MOTION":13.11419661,"ECCENTRICITY":0.0001505,"INCLINATION":87.8928,"RA_OF_ASC_NODE":29.0015,"ARG_OF_PERICENTER":79.0895,"MEAN_ANOMALY":281.0402,"EPHEMERIS_TYPE":0,"CLASSIFICATION_TYPE":"U","NORAD_CAT_ID":50478,"ELEMENT_SET_NO":999,"REV_AT_EPOCH":21037,"BSTAR":0.00037552,"MEAN_MOTION_DOT":1.46e-06,"MEAN_MOTION_DDOT":0.0},{"OBJECT_NAME":"ONEWEB-0399","OBJECT_ID":"2021-132L","EPOCH":"2026-05-08T05:13:58.291392","MEAN_MOTION":13.11419671,"ECCENTRICITY":0.0002158,"INCLINATION":87.8933,"RA_OF_ASC_NODE":29.0146,"ARG_OF_PERICENTER":91.305,"MEAN_ANOMALY":268.8326,"EPHEMERIS_TYPE":0,"CLASSIFICATION_TYPE":"U","NORAD_CAT_ID":50479,"ELEMENT_SET_NO":999,"REV_AT_EPOCH":21036,"BSTAR":-0.0011807,"MEAN_MOTION_DOT":-4.06e-06,"MEAN_MOTION_DDOT":0.0},{"OBJECT_NAME":"ONEWEB-0400","OBJECT_ID":"2021-132M","EPOCH":"2026-05-08T02:20:42.058464","MEAN_MOTION":13.18686773,"ECCENTRICITY":0.0001602,"INCLINATION":87.9189,"RA_OF_ASC_NODE":343.42,"ARG_OF_PERICENTER":86.7013,"MEAN_ANOMALY":273.4302,"EPHEMERIS_TYPE":0,"CLASSIFICATION_TYPE":"U","NORAD_CAT_ID":50480,"ELEMENT_SET_NO":999,"REV_AT_EPOCH":21632,"BSTAR":8.4781e-05,"MEAN_MOTION_DOT":4.6e-07,"MEAN_MOTION_DDOT":0.0},{"OBJECT_NAME":"ONEWEB-0401","OBJECT_ID":"2021-132N","EPOCH":"2026-05-08T03:26:16.488960","MEAN_MOTION":13.18686438,"ECCENTRICITY":0.000202,"INCLINATION":87.9194,"RA_OF_ASC_NODE":343.4074,"ARG_OF_PERICENTER":79.1045,"MEAN_ANOMALY":281.0314,"EPHEMERIS_TYPE":0,"CLASSIFICATION_TYPE":"U","NORAD_CAT_ID":50481,"ELEMENT_SET_NO":999,"REV_AT_EPOCH":21633,"BSTAR":-4.5168000000000005e-05,"MEAN_MOTION_DOT":-5e-08,"MEAN_MOTION_DDOT":0.0},{"OBJECT_NAME":"ONEWEB-0402","OBJECT_ID":"2021-132P","EPOCH":"2026-05-08T02:32:50.023392","MEAN_MOTION":13.18685043,"ECCENTRICITY":0.0002262,"INCLINATION":87.9186,"RA_OF_ASC_NODE":343.4056,"ARG_OF_PERICENTER":80.4617,"MEAN_ANOMALY":279.6771,"EPHEMERIS_TYPE":0,"CLASSIFICATION_TYPE":"U","NORAD_CAT_ID":50482,"ELEMENT_SET_NO":999,"REV_AT_EPOCH":21635,"BSTAR":0.00033884,"MEAN_MOTION_DOT":1.46e-06,"MEAN_MOTION_DDOT":0.0},{"OBJECT_NAME":"ONEWEB-0403","OBJECT_ID":"2021-132Q","EPOCH":"2026-05-08T03:09:15.527808","MEAN_MOTION":13.18685606,"ECCENTRICITY":0.0001785,"INCLINATION":87.919,"RA_OF_ASC_NODE":343.4241,"ARG_OF_PERICENTER":87.568,"MEAN_ANOMALY":272.5657,"EPHEMERIS_TYPE":0,"CLASSIFICATION_TYPE":"U","NORAD_CAT_ID":50483,"ELEMENT_SET_NO":999,"REV_AT_EPOCH":21631,"BSTAR":0.00040436,"MEAN_MOTION_DOT":1.72e-06,"MEAN_MOTION_DDOT":0.0}]