ONEWEB-0388             
1 49314U 21090AM  26128.22494430  .00000121  00000+0  26988-3 0  9999
2 49314  87.9146 312.9393 0001901  91.8900 268.2450 13.19725237221143
ONEWEB-0389             
1 50469U 21132A   26128.18036273  .00000080  00000+0  17380-3 0  9991
2 50469  87.9171  13.8207 0001946  92.6532 267.4822 13.17649354212815
ONEWEB-0390             
1 50470U 21132B   26128.18204406  .00000022  00000+0  24022-4 0  9996
2 50470  87.9170  13.8211 0001598  81.6475 278.4837 13.17649382212817
ONEWEB-0391             
1 50471U 21132C   26128.18373490  .00000072  00000+0  15219-3 0  9999
2 50471  87.9172  13.8301 0001817 108.8065 251.3264 13.17649455212816
ONEWEB-0392             
1 50472U 21132D   26128.21410502 -.00000119  00000+0 -33865-3 0  9991
2 50472  87.9179  13.7895 0001864  94.0590 266.0755 13.17649502212857
ONEWEB-0393             
1 50473U 21132E   26128.18962305  .00000030  00000+0  45241-4 0  9993
2 50473  87.9171  13.8145 0001852  86.9970 273.1373 13.17647588212844
ONEWEB-0394             
1 50474U 21132F   26128.11121082  .00000292  00000+0  70849-3 0  9997
2 50474  87.9194 343.4151 0001947  89.7486 270.3869 13.18684811216313
ONEWEB-0395             
1 50475U 21132G   26128.26381217  .00000300  00000+0  81006-3 0  9999
2 50475  87.8914  29.0088 0001632  84.7035 275.4279 13.11412810210489
ONEWEB-0396             
1 50476U 21132H   26128.10446327  .00000047  00000+0  85231-4 0  9990
2 50476  87.9192 343.4292 0001924  89.0241 271.1111 13.18685942216355
ONEWEB-0397             
1 50477U 21132J   26128.11964128  .00000026  00000+0  33063-4 0  9999
2 50477  87.9189 343.4263 0002029  87.3217 272.8147 13.18686152216330
ONEWEB-0398             
1 50478U 21132K   26128.23161226  .00000146  00000+0  37552-3 0  9990
2 50478  87.8928  29.0015 0001505  79.0895 281.0402 13.11419661210377
ONEWEB-0399             
1 50479U 21132L   26128.21803578 -.00000406  00000+0 -11807-2 0  9997
2 50479  87.8933  29.0146 0002158  91.3050 268.8326 13.11419671210362
ONEWEB-0400             
1 50480U 21132M   26128.09770901  .00000046  00000+0  84781-4 0  9999
2 50480  87.9189 343.4200 0001602  86.7013 273.4302 13.18686773216326
ONEWEB-0401             
1 50481U 21132N   26128.14324640 -.00000005  00000+0 -45168-4 0  9994
2 50481  87.9194 343.4074 0002020  79.1045 281.0314 13.18686438216335
ONEWEB-0402             
1 50482U 21132P   26128.10613453  .00000146  00000+0  33884-3 0  9999
2 50482  87.9186 343.4056 0002262  80.4617 279.6771 13.18685043216358
ONEWEB-0403             
1 50483U 21132Q   26128.13142972  .00000172  00000+0  40436-3 0  9996
2 50483  87.9190 343.4241 0001785  87.5680 272.5657 13.18685606216313
